OBJECT_NAME,OBJECT_ID,EPOCH,MEAN_MOTION,ECCENTRICITY,INCLINATION,RA_OF_ASC_NODE,ARG_OF_PERICENTER,MEAN_ANOMALY,EPHEMERIS_TYPE,CLASSIFICATION_TYPE,NORAD_CAT_ID,ELEMENT_SET_NO,REV_AT_EPOCH,BSTAR,MEAN_MOTION_DOT,MEAN_MOTION_DDOT
COSMOS 2251 DEB,1993-036BCT,2021-10-01T19:04:07.816224,14.43358283,.0054217,74.0129,98.3243,256.7445,102.7661,0,U,36533,999,62329,.10724E-3,.34E-5,0
COSMOS 2251 DEB,1993-036BCZ,2021-10-01T19:30:19.147104,14.47452032,.0033847,74.0271,64.5258,224.2406,135.6046,0,U,36539,999,61699,.18775E-3,.666E-5,0
COSMOS 2251 DEB,1993-036BDA,2021-10-01T10:59:24.607680,14.41402892,.0022566,74.0359,169.5524,252.7033,107.1653,0,U,36540,999,63822,.25212E-3,.793E-5,0
COSMOS 2251 DEB,1993-036BDB,2021-09-30T10:26:00.923424,14.68088264,.0033565,74.0178,41.1515,99.1249,261.3721,0,U,36541,999,64032,.13241E-2,.7646E-4,0
COSMOS 2251 DEB,1993-036BDD,2021-09-27T19:24:40.506624,14.62057179,.0046586,73.8325,311.9622,149.6566,210.7312,0,U,36543,999,42823,.7165E-3,.3623E-4,0
COSMOS 2251 DEB,1993-036BDJ,2021-10-01T17:01:53.903424,15.30813899,.0004299,73.9904,9.9651,43.7779,316.3764,0,U,36548,999,65821,.42034E-2,.127372E-2,0
COSMOS 2251 DEB,1993-036BDL,2021-09-27T18:44:43.381824,14.20710002,.0086211,74.0462,74.8873,136.1864,224.6163,0,U,36550,999,62797,.23704E-3,.506E-5,0
COSMOS 2251 DEB,1993-036BDM,2021-10-01T23:34:25.877280,14.64336327,.0095676,73.9006,163.7737,91.2922,269.9208,0,U,36551,999,63803,.26236E-3,.1447E-4,0
COSMOS 2251 DEB,1993-036BDP,2021-10-01T23:48:24.181056,14.77563587,.00504,74.0443,132.5402,268.9098,159.2859,0,U,36553,999,64857,.33391E-3,.24E-4,0
COSMOS 2251 DEB,1993-036BDQ,2021-10-01T23:46:32.631744,14.99461836,.0028423,74.0012,23.6430,151.2261,209.0500,0,U,36554,999,65069,.17684E-2,.21903E-3,0
COSMOS 2251 DEB,1993-036BDT,2021-10-01T09:36:20.018016,14.42839566,.0040461,73.9862,155.2438,301.5486,58.1721,0,U,36557,999,11605,.47399E-3,.157E-4,0
COSMOS 2251 DEB,1993-036BDU,2021-10-01T01:24:17.683200,14.42993015,.0017423,74.0472,141.8865,247.5053,112.4259,0,U,36558,999,63075,.18886E-3,.607E-5,0
COSMOS 2251 DEB,1993-036BDV,2021-10-01T19:57:17.020800,13.73717576,.0329011,74.1319,53.9367,104.8385,258.9421,0,U,36559,999,60175,.11592E-2,.1582E-4,0
COSMOS 2251 DEB,1993-036BEC,2021-09-30T10:17:12.728256,14.41615626,.0025019,74.0317,169.3688,251.6781,108.1653,0,U,36614,999,43400,.30492E-3,.969E-5,0
COSMOS 2251 DEB,1993-036BED,2021-09-30T09:07:59.479392,14.43511816,.011547,74.0605,40.1013,75.1886,286.2029,0,U,36615,999,48326,.16236E-2,.5935E-4,0
COSMOS 2251 DEB,1993-036BEF,2021-10-01T10:33:26.388864,15.02143741,.0068414,73.9692,185.1154,162.9078,197.4437,0,U,36617,999,65347,.23892E-2,.33179E-3,0
COSMOS 2251 DEB,1993-036BEL,2021-10-01T14:06:51.366528,14.61687474,.0086355,74.0215,227.5708,25.6314,334.9094,0,U,36622,999,44267,.18388E-3,.933E-5,0
COSMOS 2251 DEB,1993-036BEP,2021-10-01T19:22:22.461024,14.69791256,.005924,73.8813,110.3795,81.6674,291.7604,0,U,36625,999,45544,.23088E-3,.1381E-4,0
COSMOS 2251 DEB,1993-036BEQ,2021-09-30T00:08:54.775392,14.99839252,.0149218,74.0393,142.9464,222.8728,136.0751,0,U,36626,999,45061,.10314E-3,.1564E-4,0
COSMOS 2251 DEB,1993-036BEU,2021-09-23T03:40:03.984960,14.40709221,.0044273,73.9831,208.9238,331.7442,28.1311,0,U,36630,999,65036,.42618E-3,.1351E-4,0
COSMOS 2251 DEB,1993-036BEW,2021-09-30T06:25:56.821728,14.33805828,.0039764,74.0043,241.5238,349.5175,10.5142,0,U,36632,999,43167,.23583E-3,.635E-5,0
COSMOS 2251 DEB,1993-036BFE,2021-10-01T10:47:59.326944,14.80513132,.0137541,74.0356,341.3113,105.8336,255.8053,0,U,37084,999,43462,.94928E-4,.815E-5,0
COSMOS 2251 DEB,1993-036BFF,2021-09-29T16:49:27.166368,14.74956380,.0091033,73.9803,68.5412,274.6354,84.4426,0,U,37085,999,44248,.1904E-3,.133E-4,0
COSMOS 2251 DEB,1993-036BFG,2021-10-01T18:08:09.583008,14.63054887,.0050004,74.0006,294.5657,84.2819,276.4047,0,U,37086,999,46356,.42813E-3,.2206E-4,0
COSMOS 2251 DEB,1993-036BFH,2021-10-01T13:04:27.920640,14.49720125,.0195439,74.0205,217.3668,337.7525,21.5237,0,U,37087,999,62537,.17948E-2,.8809E-4,0
COSMOS 2251 DEB,1993-036BFJ,2021-10-01T08:52:01.012224,14.66492697,.0020267,74.0187,276.3072,68.9151,291.4183,0,U,37088,999,60803,.61933E-3,.3412E-4,0
COSMOS 2251 DEB,1993-036BFK,2021-09-30T04:33:57.097152,14.24331554,.0201884,74.0453,77.3579,193.0671,166.5204,0,U,37089,999,44103,.56705E-3,.1592E-4,0
COSMOS 2251 DEB,1993-036BFN,2021-09-29T08:57:59.276736,14.78326926,.001852,74.0175,280.2189,313.8099,46.1543,0,U,37092,999,42584,.1172E-2,.8524E-4,0
COSMOS 2251 DEB,1993-036BFP,2021-09-30T17:40:42.461184,14.64034098,.0158571,74.0185,281.3450,196.5522,163.0439,0,U,37093,999,48637,.27085E-3,.167E-4,0
COSMOS 2251 DEB,1993-036BFQ,2021-09-28T01:46:47.084448,14.27780928,.0097753,74.1153,30.0653,39.1977,321.6197,0,U,37094,999,62514,.22923E-3,.571E-5,0
