tleArray_g = [ {"id": 36533, "Line1": "1 36533U 93036BCT 21274.79453491  .00000340  00000-0  10724-3 0  9993", "Line2": "2 36533  74.0129  98.3243 0054217 256.7445 102.7661 14.43358283623292"}, {"id": 36539, "Line1": "1 36539U 93036BCZ 21274.81272161  .00000666  00000-0  18775-3 0  9990", "Line2": "2 36539  74.0271  64.5258 0033847 224.2406 135.6046 14.47452032616992"}, {"id": 36540, "Line1": "1 36540U 93036BDA 21274.45792370  .00000793  00000-0  25212-3 0  9996", "Line2": "2 36540  74.0359 169.5524 0022566 252.7033 107.1653 14.41402892638222"}, {"id": 36541, "Line1": "1 36541U 93036BDB 21273.43473291  .00007646  00000-0  13241-2 0  9994", "Line2": "2 36541  74.0178  41.1515 0033565  99.1249 261.3721 14.68088264640325"}, {"id": 36543, "Line1": "1 36543U 93036BDD 21270.80880216  .00003623  00000-0  71650-3 0  9993", "Line2": "2 36543  73.8325 311.9622 0046586 149.6566 210.7312 14.62057179428238"}, {"id": 36548, "Line1": "1 36548U 93036BDJ 21274.70965166  .00127372  00000-0  42034-2 0  9990", "Line2": "2 36548  73.9904   9.9651 0004299  43.7779 316.3764 15.30813899658210"}, {"id": 36550, "Line1": "1 36550U 93036BDL 21270.78105766  .00000506  00000-0  23704-3 0  9992", "Line2": "2 36550  74.0462  74.8873 0086211 136.1864 224.6163 14.20710002627970"}, {"id": 36551, "Line1": "1 36551U 93036BDM 21274.98224395  .00001447  00000-0  26236-3 0  9997", "Line2": "2 36551  73.9006 163.7737 0095676  91.2922 269.9208 14.64336327638034"}, {"id": 36553, "Line1": "1 36553U 93036BDP 21274.99194654  .00002400  00000-0  33391-3 0  9994", "Line2": "2 36553  74.0443 132.5402 0050400 268.9098 159.2859 14.77563587648576"}, {"id": 36554, "Line1": "1 36554U 93036BDQ 21274.99065546  .00021903  00000-0  17684-2 0  9997", "Line2": "2 36554  74.0012  23.6430 0028423 151.2261 209.0500 14.99461836650697"}, {"id": 36557, "Line1": "1 36557U 93036BDT 21274.40023169  .00001570  00000-0  47399-3 0  9996", "Line2": "2 36557  73.9862 155.2438 0040461 301.5486  58.1721 14.42839566116058"}, {"id": 36558, "Line1": "1 36558U 93036BDU 21274.05853800  .00000607  00000-0  18886-3 0  9990", "Line2": "2 36558  74.0472 141.8865 0017423 247.5053 112.4259 14.42993015630752"}, {"id": 36559, "Line1": "1 36559U 93036BDV 21274.83144700  .00001582  00000-0  11592-2 0  9998", "Line2": "2 36559  74.1319  53.9367 0329011 104.8385 258.9421 13.73717576601750"}, {"id": 36614, "Line1": "1 36614U 93036BEC 21273.42861954  .00000969  00000-0  30492-3 0  9990", "Line2": "2 36614  74.0317 169.3688 0025019 251.6781 108.1653 14.41615626434003"}, {"id": 36615, "Line1": "1 36615U 93036BED 21273.38054953  .00005935  00000-0  16236-2 0  9996", "Line2": "2 36615  74.0605  40.1013 0115470  75.1886 286.2029 14.43511816483263"}, {"id": 36617, "Line1": "1 36617U 93036BEF 21274.43988876  .00033179  00000-0  23892-2 0  9992", "Line2": "2 36617  73.9692 185.1154 0068414 162.9078 197.4437 15.02143741653470"}, {"id": 36622, "Line1": "1 36622U 93036BEL 21274.58809452  .00000933  00000-0  18388-3 0  9993", "Line2": "2 36622  74.0215 227.5708 0086355  25.6314 334.9094 14.61687474442672"}, {"id": 36625, "Line1": "1 36625U 93036BEP 21274.80720441  .00001381  00000-0  23088-3 0  9992", "Line2": "2 36625  73.8813 110.3795 0059240  81.6674 291.7604 14.69791256455443"}, {"id": 36626, "Line1": "1 36626U 93036BEQ 21273.00618953  .00001564  00000-0  10314-3 0  9999", "Line2": "2 36626  74.0393 142.9464 0149218 222.8728 136.0751 14.99839252450618"}, {"id": 36630, "Line1": "1 36630U 93036BEU 21266.15282390  .00001351  00000-0  42618-3 0  9990", "Line2": "2 36630  73.9831 208.9238 0044273 331.7442  28.1311 14.40709221650363"}, {"id": 36632, "Line1": "1 36632U 93036BEW 21273.26801877  .00000635  00000-0  23583-3 0  9993", "Line2": "2 36632  74.0043 241.5238 0039764 349.5175  10.5142 14.33805828431674"}, {"id": 37084, "Line1": "1 37084U 93036BFE 21274.44999221  .00000815  00000-0  94928-4 0  9999", "Line2": "2 37084  74.0356 341.3113 0137541 105.8336 255.8053 14.80513132434627"}, {"id": 37085, "Line1": "1 37085U 93036BFF 21272.70100887  .00001330  00000-0  19040-3 0  9993", "Line2": "2 37085  73.9803  68.5412 0091033 274.6354  84.4426 14.74956380442485"}, {"id": 37086, "Line1": "1 37086U 93036BFG 21274.75566647  .00002206  00000-0  42813-3 0  9998", "Line2": "2 37086  74.0006 294.5657 0050004  84.2819 276.4047 14.63054887463562"}, {"id": 37087, "Line1": "1 37087U 93036BFH 21274.54476760  .00008809  00000-0  17948-2 0  9997", "Line2": "2 37087  74.0205 217.3668 0195439 337.7525  21.5237 14.49720125625379"}, {"id": 37088, "Line1": "1 37088U 93036BFJ 21274.36945616  .00003412  00000-0  61933-3 0  9998", "Line2": "2 37088  74.0187 276.3072 0020267  68.9151 291.4183 14.66492697608038"}, {"id": 37089, "Line1": "1 37089U 93036BFK 21273.19024418  .00001592  00000-0  56705-3 0  9995", "Line2": "2 37089  74.0453  77.3579 0201884 193.0671 166.5204 14.24331554441038"}, {"id": 37092, "Line1": "1 37092U 93036BFN 21272.37360274  .00008524  00000-0  11720-2 0  9990", "Line2": "2 37092  74.0175 280.2189 0018520 313.8099  46.1543 14.78326926425840"}, {"id": 37093, "Line1": "1 37093U 93036BFP 21273.73660256  .00001670  00000-0  27085-3 0  9992", "Line2": "2 37093  74.0185 281.3450 0158571 196.5522 163.0439 14.64034098486372"}, {"id": 37094, "Line1": "1 37094U 93036BFQ 21271.07415607  .00000571  00000-0  22923-3 0  9991", "Line2": "2 37094  74.1153  30.0653 0097753  39.1977 321.6197 14.27780928625145"}];